STARLINK-31397          
1 59540U 24074G   26068.18224681  .00011242  00000+0  41827-3 0  9998
2 59540  43.0017 346.6585 0001248  41.9916 318.1032 15.27512537105936
LIME                    
1 62648U 25009AR  26068.73906781  .00013254  00000+0  47723-3 0  9995
2 62648  97.3985 151.4831 0001635  35.9029 324.2320 15.28703313 63766
